C/2023 X2 (Lemmon),h,12/26.7870/2025,77.0010,66.3137,64.5915,1.001616,5.093916,2000,8.5,3.2
# From MPEC 2024-A43
P/2023 X3 (PANSTARRS),e,4.4834,62.0125,40.8236,4.245627,0.1126656,0.28628523,14.8753,09/01.0/2024,2000,g 15.5,4.0
# From MPEC 2024-JU4
C/2023 X4 (Hogan),e,11.5948,28.7660,100.5504,9.911890,0.0315842,0.63094331,3.1328,09/01.0/2024,2000,g 12.0,4.0
# From MPEC 2024-DA2
C/2023 X7 (PANSTARRS),h,05/14.9254/2025,69.0561,119.2073,354.3551,1.002448,4.820794,2000,9.0,4.0
# From MPEC 2024-JU4
P/2023 Y1 (Gibbs),e,6.3841,78.8561,51.4488,3.748959,0.1357807,0.44521241,37.5027,09/01.0/2024,2000,g 17.0,4.0
# From MPEC 2024-F34
P/2023 Y2 (Gibbs),e,6.9928,79.2285,16.8450,3.745584,0.1359642,0.39225937,52.7596,09/01.0/2024,2000,g 15.5,4.0
# From MPEC 2024-JU4
C/2024 A1 (ATLAS),h,06/13.6997/2025,94.4465,112.1414,353.3049,1.001390,3.875521,2000,7.0,4.0
# From MPEC 2024-R10
C/2024 A2 (ATLAS),e,119.1129,78.1666,295.5840,32.45176,0.0053315,0.94201722,0.6669,09/01.0/2024,2000,g 12.5,4.0
# From MPEC 2024-R10
C/2024 B1 (Lemmon),h,10/07.7011/2024,70.9049,79.1876,66.2093,1.000844,1.633648,2000,13.0,4.0
# From MPEC 2024-GJ3
C/2024 B2 (Lemmon),e,99.8409,294.3783,130.3308,4622,0.0000031,0.99911798,0.0000,10/06.0811/2023,2000,g 11.5,4.0
# From MPEC 2024-M41
C/2024 C1 (PANSTARRS),e,14.2268,83.8104,94.4658,10.56425,0.0287042,0.58227657,0.0324,09/01.0/2024,2000,g 11.5,4.0
# From MPEC 2024-JU4
C/2024 C2 (PANSTARRS),e,27.2844,66.4417,87.5371,16.19582,0.0151217,0.44483192,357.1218,09/01.0/2024,2000,g  6.0,4.0
# From MPEC 2024-GJ3
C/2024 C3 (PANSTARRS),e,22.4625,359.7091,159.6502,11.65114,0.0247829,0.42386749,7.3831,09/01.0/2024,2000,g  9.0,4.0
# From MPEC 2024-Q20
C/2024 C4 (ATLAS),e,79.2865,220.6840,321.5185,83.95787,0.0012812,0.98247743,0.0000,01/30.1952/2024,2000,g 14.5,4.0
# From MPEC 2024-EG1
A/2024 D1,e,132.4505,179.6684,125.7395,1773,0.0000132,0.99621936,0.0000,12/05.0490/2027,2000,g 11.0,2.0
# From MPEC 2024-Q20
C/2024 E1 (Wierzchos),h,01/20.7733/2026,75.2351,108.1012,243.6534,1.000007,0.565424,2000,7.0,4.0
# From MPEC 2024-JU4
C/2024 E2 (Bok),e,155.6481,135.6509,358.0571,51.71343,0.0026503,0.85124999,0.8293,09/01.0/2024,2000,g  8.0,4.0
# From MPEC 2024-JU4
P/2024 F1 (PANSTARRS),e,7.0054,251.5419,229.5486,3.442988,0.1542769,0.45987476,48.0317,09/01.0/2024,2000,g 16.0,4.0
# From MPEC 2024-Q20
C/2024 F2 (PANSTARRS),e,13.7409,138.9475,112.9114,9.949910,0.0314033,0.60117390,1.0629,09/01.0/2024,2000,g 11.0,4.0
# From MPEC 2024-R10
P/2024 FG9 (Nanshan-Hahn),e,1.7312,253.0441,245.9130,3.256439,0.1677219,0.50977494,17.3845,09/01.0/2024,2000,g 14.0,4.0
# From MPEC 2024-PC5
C/2024 G1 (Wierzchos),e,95.4007,30.5998,128.2255,121.5307,0.0007357,0.96766070,359.9632,09/01.0/2024,2000,g 10.0,4.0
# From MPEC 2024-JU4
C/2024 G2 (ATLAS),e,122.1317,171.3945,328.7905,893.4990,0.0000369,0.99401716,0.0000,06/13.7810/2025,2000,g  7.0,4.0
# From MPEC 2024-R10
C/2024 G3 (ATLAS),h,01/13.4283/2025,116.8480,220.3366,108.1253,1.000010,0.093517,2000,9.0,4.0
# From MPEC 2024-P23
C/2024 G4 (PANSTARRS),e,33.0274,152.9978,131.4298,3066,0.0000058,0.99840207,0.0000,03/21.7639/2026,2000,g  8.0,4.0
# From MPEC 2024-JC6
C/2024 G5 (Leonard),e,50.3890,316.3986,209.5627,541.9294,0.0000781,0.99455122,0.0000,09/07.0002/2024,2000,g 13.0,4.0
# From MPEC 2024-R10
C/2024 G6 (ATLAS),h,02/21.0253/2026,120.4580,250.9516,23.4666,1.002346,6.428891,2000,5.5,4.0
# From MPEC 2024-Q20
C/2024 G7 (ATLAS),h,02/10.2753/2025,131.5187,191.9487,289.6625,1.001675,6.027654,2000,7.0,4.0
# From MPEC 2024-Q05
A/2024 G8,e,97.4109,11.2471,249.1579,143.7806,0.0005717,0.99184606,0.0000,06/15.6050/2024,2000,g 20.0,2.0
# From MPEC 2024-JU4
P/2024 J1 (PANSTARRS),e,13.1579,321.9514,200.3413,3.807938,0.1326384,0.30752134,39.1038,09/01.0/2024,2000,g 14.5,4.0
# From MPEC 2024-R10
C/2024 J2 (Wierzchos),e,79.2962,189.0608,143.1542,149.2735,0.0005404,0.98786922,0.0000,03/19.7506/2025,2000,g 11.5,4.0
# From MPEC 2024-R10
C/2024 J3 (ATLAS),h,11/25.2616/2026,75.6267,285.9641,74.0943,1.000925,3.864507,2000,5.0,4.0
# From MPEC 2024-Q20
C/2024 J4 (Lemmon),e,117.5354,19.2955,127.8690,4026,0.0000039,0.99858546,0.0000,04/26.1756/2025,2000,g  8.0,4.0
# From MPEC 2024-LB4
P/2024 K1 (PANSTARRS),e,1.7862,251.6907,351.9628,6.847011,0.0550114,0.49525010,6.3195,09/01.0/2024,2000,g 13.5,4.0
# From MPEC 2024-NE4
C/2024 L1 (PANSTARRS),e,99.1719,45.1392,171.8348,11.45799,0.0254122,0.53327371,354.0393,09/01.0/2024,2000,g 10.0,4.0
# From MPEC 2024-P23
C/2024 L2 (PANSTARRS),e,139.4864,266.2869,345.6517,457.3542,0.0001008,0.98179533,0.0000,06/13.3997/2025,2000,g  7.5,3.2
# From MPEC 2024-NA5
C/2024 L3 (PANSTARRS),h,11/25.9262/2023,111.5906,294.9769,59.2081,1.002268,6.859340,2000,9.0,4.0
# From MPEC 2024-P23
P/2024 L4 (Rankin),e,10.0463,139.7765,53.7101,2.228578,0.2962526,0.69838477,41.3891,09/01.0/2024,2000,g 21.5,4.0
# From MPEC 2024-R10
C/2024 L5 (ATLAS),h,03/10.5011/2025,166.5730,139.1666,290.5317,1.037318,3.431711,2000,9.0,4.0
# From MPEC 2024-R10
C/2024 M1 (ATLAS),e,73.7101,76.2153,345.6047,29.85396,0.0060423,0.94294357,359.5164,09/01.0/2024,2000,g 12.0,4.0
# From MPEC 2024-NE4
C/2024 N1 (PANSTARRS),h,10/18.5517/2025,88.7772,323.0152,91.2011,1.002092,4.400257,2000,10.5,4.0
# From MPEC 2024-Q20
P/2024 N2 (PANSTARRS),e,7.7898,245.0460,48.8835,3.795642,0.1332835,0.35706066,12.3885,09/01.0/2024,2000,g 16.0,4.0
# From MPEC 2024-R10
C/2024 N3 (Sarneczky),h,04/11.3014/2025,88.7293,82.6091,86.8659,1.000789,5.014836,2000,8.0,4.0
# From MPEC 2024-R10
C/2024 N4 (Sarneczky),h,01/09.9079/2025,49.7688,339.6762,116.6648,1.005801,5.398219,2000,7.5,4.0
# From MPEC 2024-PC5
P/2024 N6 (NEAT-PANSTARRS),e,11.3647,324.0752,1.4595,3.733552,0.1366220,0.55059139,14.3210,09/01.0/2024,2000,g 16.5,4.0
# From MPEC 2024-PC5
C/2024 O1 (PANSTARRS),h,01/29.0448/2023,59.0719,303.3344,349.9275,1.001394,6.608244,2000,8.5,4.0
# From MPEC 2024-R10
P/2024 O2 (PANSTARRS),e,28.9643,6.8157,310.6241,7.394304,0.0490183,0.50014591,6.5997,09/01.0/2024,2000,g 12.0,4.0
# From  98, 1083
1P/Halley,e,162.2070,59.6960,112.6082,17.86662,0.0130509,0.96704103,183.5055,09/01.0/2024,2000,g  4.0,6.0
# From MPEC 2024-R10
2P/Encke,e,11.3391,334.0149,187.2838,2.218380,0.2982979,0.84698062,93.8050,09/01.0/2024,2000,g 11.5,6.0
# From  76, 1135
3D/Biela,e,7.8876,276.1866,192.2887,3.539303,0.1480224,0.76749483,315.8577,09/01.0/2024,2000,g 11.0,6.0
# From  76, 1135
3D-A/Biela,e,7.2154,276.6859,192.1202,3.550290,0.1473358,0.76712736,346.4270,09/01.0/2024,2000,g 11.0,6.0
# From  76, 1135
3D-B/Biela,e,7.8797,276.2013,192.2497,3.540052,0.1479754,0.76779283,315.5942,09/01.0/2024,2000,g 11.0,6.0
# From MPEC 2023-FK0
4P/Faye,e,8.0066,192.9212,207.1131,3.829012,0.1315449,0.57664293,143.1051,09/01.0/2024,2000,g  8.0,6.0
# From  27, 116
5D/Brorsen,e,18.6278,94.9056,20.3018,3.158283,0.1756012,0.83775791,88.2976,09/01.0/2024,2000,g 10.5,6.0
# From MPEC 2022-WD2
6P/d'Arrest,e,19.5010,138.9502,178.0768,3.497524,0.1506826,0.61196111,162.7375,09/01.0/2024,2000,g  7.5,16.0
# From MPEC 2023-A50
7P/Pons-Winnecke,e,22.4525,93.2736,172.4577,3.404387,0.1569082,0.64025737,187.1998,09/01.0/2024,2000,g 10.0,6.0
# From MPEC 2022-HC2
8P/Tuttle,e,54.9742,270.1752,207.4720,5.704289,0.0723439,0.82054428,79.5672,09/01.0/2024,2000,g  8.0,8.0
# From MPEC 2024-AF0
9P/Tempel,e,10.9485,67.3949,183.8939,3.241189,0.1689069,0.49299958,153.3437,09/01.0/2024,2000,g  5.5,10.0
# From MPEC 2024-R10
10P/Tempel,e,12.0286,117.8061,195.5163,3.063003,0.1838582,0.53748981,231.2672,09/01.0/2024,2000,g  5.0,10.0
# From MPEC 2024-R10
11P/Tempel-Swift-LINEAR,e,14.4347,238.8653,168.0346,3.283541,0.1656496,0.57756193,227.5328,09/01.0/2024,2000,g 17.0,4.0
# From MPEC 2024-R10
12P/Pons-Brooks,e,74.1918,255.8559,198.9880,17.18447,0.0138357,0.95456454,1.8384,09/01.0/2024,2000,g  5.0,6.0
# From MPEC 2024-R10
13P/Olbers,e,44.6658,85.8474,64.4160,16.85541,0.0142428,0.93026154,0.8966,09/01.0/2024,2000,g  5.0,6.0
# From MPEC 2024-LE0
14P/Wolf,e,27.9226,202.0353,159.1779,4.257041,0.1122128,0.35686884,276.0828,09/01.0/2024,2000,g  5.5,12.0
# From MPEC 2022-ED3
15P/Finlay,e,6.7916,13.7428,347.8750,3.510163,0.1498694,0.71647445,171.7030,09/01.0/2024,2000,g 12.0,4.0
# From MPEC 2022-X67
16P/Brooks,e,3.0102,138.8440,245.3479,3.661168,0.1406937,0.48600968,173.2637,09/01.0/2024,2000,g  7.5,10.0
# From MPEC 2023-J29
17P/Holmes,e,19.0128,326.6210,24.6221,3.640394,0.1418997,0.42672125,182.9991,09/01.0/2024,2000,g 10.0,6.0
# From  19, 80
18D/Perrine-Mrkos,e,17.656,158.468,238.233,3.88277,0.128822,0.5895910,0.359,09/01.0/2024,2000,g  9.0,4.0
# From MPEC 2024-JU4
19P/Borrelly,e,29.3169,74.2148,351.9881,3.607930,0.1438192,0.63789509,135.4566,09/01.0/2024,2000,g  4.5,10.0
# From MPEC 2024-LE0
21P/Giacobini-Zinner,e,32.0508,195.3356,172.9242,3.492709,0.1509943,0.71111395,328.9933,09/01.0/2024,2000,g  9.0,6.0
# From MPEC 2024-L77
22P/Kopff,e,4.7640,120.4768,162.9021,3.427254,0.1553405,0.55238194,139.3174,09/01.0/2024,2000,g  3.0,10.4
# From MPC 14747
23P/Brorsen-Metcalf,e,19.3996,311.4188,129.7479,16.93963,0.0141367,0.97256230,0.0000,05/20.8072/2059,2000,g 10.0,6.0
# From MPC110085
24P/Schaumasse,e,11.5060,78.3723,58.3962,4.056001,0.1206583,0.70804675,300.3503,09/01.0/2024,2000,g  6.5,14.0
# From NK 378
25D/Neujmin 2,e,2.8075,279.9877,244.7785,3.223497,0.1702994,0.55081037,317.0234,09/01.0/2024,2000,g 12.5,6.0
# From MPEC 2024-R10
26P/Grigg-Skjellerup,e,22.4331,211.5383,2.1381,3.015418,0.1882274,0.64057558,47.1821,09/01.0/2024,2000,g 12.0,16.0
# From MPC 78188
27P/Crommelin,e,29.4399,250.7081,195.8330,9.179223,0.0354401,0.91956740,169.4591,09/01.0/2024,2000,g 12.0,8.0
# From MPEC 2024-GJ3
28P/Neujmin,e,14.3003,346.3872,347.4732,6.982752,0.0534151,0.77301881,67.8346,09/01.0/2024,2000,g  8.5,6.0
# From MPEC 2024-LE0
29P/Schwassmann-Wachmann,e,9.3577,312.4060,52.1051,6.054471,0.0661591,0.04381619,128.8091,09/01.0/2024,2000,g  4.0,4.0
# From MPEC 2024-GJ3
30P/Reinmuth,e,8.0533,117.2360,9.4868,3.734142,0.1365896,0.51430854,2.0239,09/01.0/2024,2000,g  9.5,6.0
# From MPEC 2023-RF3
